[{"OBJECT_NAME":"STARLINK-11699 [DTC]","OBJECT_ID":"2025-089M","EPOCH":"2025-12-27T02:14:55.205664","MEAN_MOTION":15.70939682,"ECCENTRICITY":0.00026499,"INCLINATION":42.9999,"RA_OF_ASC_NODE":10.2186,"ARG_OF_PERICENTER":291.915,"MEAN_ANOMALY":68.1436,"EPHEMERIS_TYPE":0,"CLASSIFICATION_TYPE":"U","NORAD_CAT_ID":63762,"ELEMENT_SET_NO":999,"REV_AT_EPOCH":3871,"BSTAR":0.0018055446,"MEAN_MOTION_DOT":0.00239022,"MEAN_MOTION_DDOT":0},{"OBJECT_NAME":"STARLINK-11693 [DTC]","OBJECT_ID":"2025-089N","EPOCH":"2025-12-27T01:22:43.616928","MEAN_MOTION":15.70875199,"ECCENTRICITY":0.00020691,"INCLINATION":43.0009,"RA_OF_ASC_NODE":9.9267,"ARG_OF_PERICENTER":254.9222,"MEAN_ANOMALY":105.1417,"EPHEMERIS_TYPE":0,"CLASSIFICATION_TYPE":"U","NORAD_CAT_ID":63763,"ELEMENT_SET_NO":999,"REV_AT_EPOCH":3860,"BSTAR":0.001734457,"MEAN_MOTION_DOT":0.00228678,"MEAN_MOTION_DDOT":0},{"OBJECT_NAME":"STARLINK-33760","OBJECT_ID":"2025-089P","EPOCH":"2025-12-27T14:48:58.072320","MEAN_MOTION":15.27618813,"ECCENTRICITY":4.51e-5,"INCLINATION":42.9951,"RA_OF_ASC_NODE":92.3778,"ARG_OF_PERICENTER":280.7822,"MEAN_ANOMALY":79.2978,"EPHEMERIS_TYPE":0,"CLASSIFICATION_TYPE":"U","NORAD_CAT_ID":63764,"ELEMENT_SET_NO":999,"REV_AT_EPOCH":3793,"BSTAR":0.0016023,"MEAN_MOTION_DOT":0.00044147,"MEAN_MOTION_DDOT":0},{"OBJECT_NAME":"STARLINK-33941","OBJECT_ID":"2025-089Q","EPOCH":"2025-12-26T16:54:29.592288","MEAN_MOTION":15.27602699,"ECCENTRICITY":0.00017079,"INCLINATION":42.9912,"RA_OF_ASC_NODE":97.5709,"ARG_OF_PERICENTER":90.9546,"MEAN_ANOMALY":269.1501,"EPHEMERIS_TYPE":0,"CLASSIFICATION_TYPE":"U","NORAD_CAT_ID":63765,"ELEMENT_SET_NO":999,"REV_AT_EPOCH":3778,"BSTAR":0.0013040942,"MEAN_MOTION_DOT":0.00035824,"MEAN_MOTION_DDOT":0},{"OBJECT_NAME":"STARLINK-33824","OBJECT_ID":"2025-089R","EPOCH":"2025-12-27T15:16:43.307904","MEAN_MOTION":15.27607704,"ECCENTRICITY":1.69e-5,"INCLINATION":43.0014,"RA_OF_ASC_NODE":92.5327,"ARG_OF_PERICENTER":273.8789,"MEAN_ANOMALY":86.2043,"EPHEMERIS_TYPE":0,"CLASSIFICATION_TYPE":"U","NORAD_CAT_ID":63766,"ELEMENT_SET_NO":999,"REV_AT_EPOCH":3793,"BSTAR":0.0010643,"MEAN_MOTION_DOT":0.00029167,"MEAN_MOTION_DDOT":0},{"OBJECT_NAME":"STARLINK-33808","OBJECT_ID":"2025-089S","EPOCH":"2025-12-27T06:45:14.705280","MEAN_MOTION":15.27564563,"ECCENTRICITY":1.05e-5,"INCLINATION":42.9941,"RA_OF_ASC_NODE":94.1571,"ARG_OF_PERICENTER":279.8869,"MEAN_ANOMALY":80.197,"EPHEMERIS_TYPE":0,"CLASSIFICATION_TYPE":"U","NORAD_CAT_ID":63767,"ELEMENT_SET_NO":999,"REV_AT_EPOCH":3788,"BSTAR":0.0011254,"MEAN_MOTION_DOT":0.00030822,"MEAN_MOTION_DDOT":0},{"OBJECT_NAME":"STARLINK-33844","OBJECT_ID":"2025-089T","EPOCH":"2025-12-27T12:34:05.823264","MEAN_MOTION":15.27604873,"ECCENTRICITY":0.0002015,"INCLINATION":43.0051,"RA_OF_ASC_NODE":92.5398,"ARG_OF_PERICENTER":281.7124,"MEAN_ANOMALY":78.3502,"EPHEMERIS_TYPE":0,"CLASSIFICATION_TYPE":"U","NORAD_CAT_ID":63768,"ELEMENT_SET_NO":999,"REV_AT_EPOCH":3792,"BSTAR":0.0011369,"MEAN_MOTION_DOT":0.00031181,"MEAN_MOTION_DDOT":0},{"OBJECT_NAME":"STARLINK-33907","OBJECT_ID":"2025-089U","EPOCH":"2025-12-26T16:45:13.236768","MEAN_MOTION":15.27600137,"ECCENTRICITY":0.00021183,"INCLINATION":42.9976,"RA_OF_ASC_NODE":97.5197,"ARG_OF_PERICENTER":257.8426,"MEAN_ANOMALY":102.2188,"EPHEMERIS_TYPE":0,"CLASSIFICATION_TYPE":"U","NORAD_CAT_ID":63769,"ELEMENT_SET_NO":999,"REV_AT_EPOCH":3774,"BSTAR":0.0011352733,"MEAN_MOTION_DOT":0.0003113,"MEAN_MOTION_DDOT":0},{"OBJECT_NAME":"STARLINK-33884","OBJECT_ID":"2025-089V","EPOCH":"2025-12-27T12:35:56.785920","MEAN_MOTION":15.27607398,"ECCENTRICITY":0.0001484,"INCLINATION":43.0025,"RA_OF_ASC_NODE":92.5432,"ARG_OF_PERICENTER":270.663,"MEAN_ANOMALY":89.4051,"EPHEMERIS_TYPE":0,"CLASSIFICATION_TYPE":"U","NORAD_CAT_ID":63770,"ELEMENT_SET_NO":999,"REV_AT_EPOCH":3787,"BSTAR":0.0010717,"MEAN_MOTION_DOT":0.0002937,"MEAN_MOTION_DDOT":0},{"OBJECT_NAME":"STARLINK-33841","OBJECT_ID":"2025-089W","EPOCH":"2025-12-26T16:23:00.748320","MEAN_MOTION":15.27604263,"ECCENTRICITY":0.00015453,"INCLINATION":43.0022,"RA_OF_ASC_NODE":97.4025,"ARG_OF_PERICENTER":277.1022,"MEAN_ANOMALY":82.9654,"EPHEMERIS_TYPE":0,"CLASSIFICATION_TYPE":"U","NORAD_CAT_ID":63771,"ELEMENT_SET_NO":999,"REV_AT_EPOCH":3774,"BSTAR":0.00069170588,"MEAN_MOTION_DOT":0.00018835,"MEAN_MOTION_DDOT":0},{"OBJECT_NAME":"STARLINK-33769","OBJECT_ID":"2025-089X","EPOCH":"2025-12-27T07:49:46.729056","MEAN_MOTION":15.27600056,"ECCENTRICITY":0.0001309,"INCLINATION":42.9994,"RA_OF_ASC_NODE":93.6274,"ARG_OF_PERICENTER":211.2694,"MEAN_ANOMALY":148.808,"EPHEMERIS_TYPE":0,"CLASSIFICATION_TYPE":"U","NORAD_CAT_ID":63773,"ELEMENT_SET_NO":999,"REV_AT_EPOCH":3788,"BSTAR":0.0009421,"MEAN_MOTION_DOT":0.00025769,"MEAN_MOTION_DDOT":0},{"OBJECT_NAME":"STARLINK-33914","OBJECT_ID":"2025-089Y","EPOCH":"2025-12-26T23:41:11.628096","MEAN_MOTION":15.27584801,"ECCENTRICITY":4.966e-5,"INCLINATION":42.9978,"RA_OF_ASC_NODE":91.8849,"ARG_OF_PERICENTER":92.2097,"MEAN_ANOMALY":267.8811,"EPHEMERIS_TYPE":0,"CLASSIFICATION_TYPE":"U","NORAD_CAT_ID":63774,"ELEMENT_SET_NO":999,"REV_AT_EPOCH":3788,"BSTAR":0.0011340988,"MEAN_MOTION_DOT":0.00031082,"MEAN_MOTION_DDOT":0},{"OBJECT_NAME":"STARLINK-33932","OBJECT_ID":"2025-091A","EPOCH":"2025-12-27T15:09:45.352224","MEAN_MOTION":15.27609353,"ECCENTRICITY":4.35e-5,"INCLINATION":43.0008,"RA_OF_ASC_NODE":99.3197,"ARG_OF_PERICENTER":51.5349,"MEAN_ANOMALY":308.5542,"EPHEMERIS_TYPE":0,"CLASSIFICATION_TYPE":"U","NORAD_CAT_ID":63775,"ELEMENT_SET_NO":999,"REV_AT_EPOCH":3792,"BSTAR":0.00097733,"MEAN_MOTION_DOT":0.00026753,"MEAN_MOTION_DDOT":0},{"OBJECT_NAME":"STARLINK-33930","OBJECT_ID":"2025-091B","EPOCH":"2025-12-26T16:27:22.071168","MEAN_MOTION":15.27592877,"ECCENTRICITY":0.00016562,"INCLINATION":43.0045,"RA_OF_ASC_NODE":105.1271,"ARG_OF_PERICENTER":273.9947,"MEAN_ANOMALY":86.0715,"EPHEMERIS_TYPE":0,"CLASSIFICATION_TYPE":"U","NORAD_CAT_ID":63776,"ELEMENT_SET_NO":999,"REV_AT_EPOCH":3773,"BSTAR":0.00094542722,"MEAN_MOTION_DOT":0.00025856,"MEAN_MOTION_DDOT":0},{"OBJECT_NAME":"STARLINK-33911","OBJECT_ID":"2025-091C","EPOCH":"2025-12-27T15:05:35.058336","MEAN_MOTION":15.27613629,"ECCENTRICITY":0.0001242,"INCLINATION":43.0003,"RA_OF_ASC_NODE":92.338,"ARG_OF_PERICENTER":277.8855,"MEAN_ANOMALY":82.1856,"EPHEMERIS_TYPE":0,"CLASSIFICATION_TYPE":"U","NORAD_CAT_ID":63777,"ELEMENT_SET_NO":999,"REV_AT_EPOCH":3796,"BSTAR":0.0017241,"MEAN_MOTION_DOT":0.00047535,"MEAN_MOTION_DDOT":0},{"OBJECT_NAME":"STARLINK-33938","OBJECT_ID":"2025-091D","EPOCH":"2025-12-27T13:59:38.779008","MEAN_MOTION":15.27605472,"ECCENTRICITY":0.0001053,"INCLINATION":42.9987,"RA_OF_ASC_NODE":99.8206,"ARG_OF_PERICENTER":260.938,"MEAN_ANOMALY":99.1353,"EPHEMERIS_TYPE":0,"CLASSIFICATION_TYPE":"U","NORAD_CAT_ID":63778,"ELEMENT_SET_NO":999,"REV_AT_EPOCH":3796,"BSTAR":0.00098441,"MEAN_MOTION_DOT":0.00026947,"MEAN_MOTION_DDOT":0}]
