STARLINK-11699 [DTC]    
1 63762U 25089M   25361.09369451  .00239022  00000+0  18055-2 0  9990
2 63762  42.9999  10.2186 0002649 291.9150  68.1436 15.70939682 38711
STARLINK-11693 [DTC]    
1 63763U 25089N   25361.05744927  .00228678  00000+0  17345-2 0  9998
2 63763  43.0009   9.9267 0002069 254.9222 105.1417 15.70875199 38607
STARLINK-33760          
1 63764U 25089P   25361.61733880  .00044147  00000+0  16023-2 0  9996
2 63764  42.9951  92.3778 0000451 280.7822  79.2978 15.27618813 37939
STARLINK-33941          
1 63765U 25089Q   25360.70450917  .00035824  00000+0  13041-2 0  9992
2 63765  42.9912  97.5709 0001707  90.9546 269.1501 15.27602699 37787
STARLINK-33824          
1 63766U 25089R   25361.63661236  .00029167  00000+0  10643-2 0  9992
2 63766  43.0014  92.5327 0000169 273.8789  86.2043 15.27607704 37934
STARLINK-33808          
1 63767U 25089S   25361.28142020  .00030822  00000+0  11254-2 0  9998
2 63767  42.9941  94.1571 0000105 279.8869  80.1970 15.27564563 37887
STARLINK-33844          
1 63768U 25089T   25361.52367851  .00031181  00000+0  11369-2 0  9993
2 63768  43.0051  92.5398 0002015 281.7124  78.3502 15.27604873 37923
STARLINK-33907          
1 63769U 25089U   25360.69806987  .00031130  00000+0  11353-2 0  9996
2 63769  42.9976  97.5197 0002118 257.8426 102.2188 15.27600137 37749
STARLINK-33884          
1 63770U 25089V   25361.52496280  .00029370  00000+0  10717-2 0  9998
2 63770  43.0025  92.5432 0001484 270.6630  89.4051 15.27607398 37875
STARLINK-33841          
1 63771U 25089W   25360.68264755  .00018835  00000+0  69171-3 0  9998
2 63771  43.0022  97.4025 0001545 277.1022  82.9654 15.27604263 37741
STARLINK-33769          
1 63773U 25089X   25361.32623529  .00025769  00000+0  94210-3 0  9996
2 63773  42.9994  93.6274 0001309 211.2694 148.8080 15.27600056 37881
STARLINK-33914          
1 63774U 25089Y   25360.98694014  .00031082  00000+0  11341-2 0  9993
2 63774  42.9978  91.8849 0000496  92.2097 267.8811 15.27584801 37885
STARLINK-33932          
1 63775U 25091A   25361.63177491  .00026753  00000+0  97733-3 0  9994
2 63775  43.0008  99.3197 0000435  51.5349 308.5542 15.27609353 37921
STARLINK-33930          
1 63776U 25091B   25360.68567212  .00025856  00000+0  94543-3 0  9992
2 63776  43.0045 105.1271 0001656 273.9947  86.0715 15.27592877 37733
STARLINK-33911          
1 63777U 25091C   25361.62887799  .00047535  00000+0  17241-2 0  9990
2 63777  43.0003  92.3380 0001242 277.8855  82.1856 15.27613629 37965
STARLINK-33938          
1 63778U 25091D   25361.58308772  .00026947  00000+0  98441-3 0  9991
2 63778  42.9987  99.8206 0001053 260.9380  99.1353 15.27605472 37967
